{"type": "FeatureCollection", "features": [ {"type": "Feature", "properties": {"norad_id": 47012, "name": "FENGYUN 1C DEB", "group": "fengyun-1c-debris", "lat": 2.1969681620180284, "lon": 43.86469283712475, "alt_km": 1011.8530693097355, "timestamp": "2025-12-10T21:43:22.378670+00:00", "meta": {"OBJECT_NAME": "FENGYUN 1C DEB", "OBJECT_ID": "1999-025FAN", "EPOCH": "2025-12-05T22:22:36.481152", "MEAN_MOTION": 13.77908149, "ECCENTRICITY": 0.01638485, "INCLINATION": 98.755, "RA_OF_ASC_NODE": 218.9381, "ARG_OF_PERICENTER": 81.7177, "MEAN_ANOMALY": 280.2518, "EPHEMERIS_TYPE": 0, "CLASSIFICATION_TYPE": "U", "NORAD_CAT_ID": 47012, "ELEMENT_SET_NO": 999, "REV_AT_EPOCH": 54479, "BSTAR": 0.00065808903, "MEAN_MOTION_DOT": 6.91e-06, "MEAN_MOTION_DDOT": 0}, "tle": {"line1": "1 47012U 99025FAN 25339.93236668  .00000691  00000+0  65809-3 0  9990", "line2": "2 47012  98.7550 218.9381 0163848  81.7177 280.2518 13.77908149544797"}}, "geometry": {"type": "Point", "coordinates": [43.86469283712475, 2.1969681620180284]}}, {"type": "Feature", "properties": {"norad_id": 47013, "name": "FENGYUN 1C DEB", "group": "fengyun-1c-debris", "lat": 5.392537415690403, "lon": 54.08075206977301, "alt_km": 848.4545389926498, "timestamp": "2025-12-10T21:43:22.378680+00:00", "meta": {"OBJECT_NAME": "FENGYUN 1C DEB", "OBJECT_ID": "1999-025FAP", "EPOCH": "2025-11-16T11:10:59.954016", "MEAN_MOTION": 14.24672933, "ECCENTRICITY": 0.00559466, "INCLINATION": 98.0819, "RA_OF_ASC_NODE": 32.3431, "ARG_OF_PERICENTER": 238.0397, "MEAN_ANOMALY": 121.5338, "EPHEMERIS_TYPE": 0, "CLASSIFICATION_TYPE": "U", "NORAD_CAT_ID": 47013, "ELEMENT_SET_NO": 999, "REV_AT_EPOCH": 72885, "BSTAR": 0.0028202138, "MEAN_MOTION_DOT": 6.632e-05, "MEAN_MOTION_DDOT": 0}, "tle": {"line1": "1 47013U 99025FAP 25320.46597169  .00006632  00000+0  28202-2 0  9991", "line2": "2 47013  98.0819  32.3431 0055946 238.0397 121.5338 14.24672933728853"}}, "geometry": {"type": "Point", "coordinates": [54.08075206977301, 5.392537415690403]}}, {"type": "Feature", "properties": {"norad_id": 47015, "name": "FENGYUN 1C DEB", "group": "fengyun-1c-debris", "lat": 33.003491562182326, "lon": -132.8451646646186, "alt_km": 495.31221307347914, "timestamp": "2025-12-10T21:43:22.378690+00:00", "meta": {"OBJECT_NAME": "FENGYUN 1C DEB", "OBJECT_ID": "1999-025FAR", "EPOCH": "2025-12-07T02:39:25.768224", "MEAN_MOTION": 14.87223256, "ECCENTRICITY": 0.01761697, "INCLINATION": 98.7113, "RA_OF_ASC_NODE": 37.2769, "ARG_OF_PERICENTER": 130.5796, "MEAN_ANOMALY": 231.0902, "EPHEMERIS_TYPE": 0, "CLASSIFICATION_TYPE": "U", "NORAD_CAT_ID": 47015, "ELEMENT_SET_NO": 999, "REV_AT_EPOCH": 64298, "BSTAR": 0.0012529524, "MEAN_MOTION_DOT": 0.00014972, "MEAN_MOTION_DDOT": 0}, "tle": {"line1": "1 47015U 99025FAR 25341.11071491  .00014972  00000+0  12530-2 0  9996", "line2": "2 47015  98.7113  37.2769 0176169 130.5796 231.0902 14.87223256642989"}}, "geometry": {"type": "Point", "coordinates": [-132.8451646646186, 33.003491562182326]}}, {"type": "Feature", "properties": {"norad_id": 47025, "name": "FENGYUN 1C DEB", "group": "fengyun-1c-debris", "lat": 40.0364418042949, "lon": -176.36192278214628, "alt_km": 711.8960968835509, "timestamp": "2025-12-10T21:43:22.378701+00:00", "meta": {"OBJECT_NAME": "FENGYUN 1C DEB", "OBJECT_ID": "1999-025FBB", "EPOCH": "2025-12-09T20:42:01.885248", "MEAN_MOTION": 14.46221932, "ECCENTRICITY": 0.00406708, "INCLINATION": 99.0334, "RA_OF_ASC_NODE": 190.2091, "ARG_OF_PERICENTER": 5.95, "MEAN_ANOMALY": 9.3678, "EPHEMERIS_TYPE": 0, "CLASSIFICATION_TYPE": "U", "NORAD_CAT_ID": 47025, "ELEMENT_SET_NO": 999, "REV_AT_EPOCH": 62700, "BSTAR": 0.0033112033, "MEAN_MOTION_DOT": 0.00011941, "MEAN_MOTION_DDOT": 0}, "tle": {"line1": "1 47025U 99025FBB 25343.86252182  .00011941  00000+0  33112-2 0  9991", "line2": "2 47025  99.0334 190.2091 0040670   5.9500   9.3678 14.46221932627008"}}, "geometry": {"type": "Point", "coordinates": [-176.36192278214628, 40.0364418042949]}}, {"type": "Feature", "properties": {"norad_id": 47036, "name": "FENGYUN 1C DEB", "group": "fengyun-1c-debris", "lat": 46.613395671409066, "lon": 19.011645864096398, "alt_km": 809.0932543562049, "timestamp": "2025-12-10T21:43:22.378711+00:00", "meta": {"OBJECT_NAME": "FENGYUN 1C DEB", "OBJECT_ID": "1999-025FBN", "EPOCH": "2025-12-08T08:42:19.355328", "MEAN_MOTION": 14.15172568, "ECCENTRICITY": 0.00687855, "INCLINATION": 98.7227, "RA_OF_ASC_NODE": 25.8733, "ARG_OF_PERICENTER": 109.9906, "MEAN_ANOMALY": 312.7639, "EPHEMERIS_TYPE": 0, "CLASSIFICATION_TYPE": "U", "NORAD_CAT_ID": 47036, "ELEMENT_SET_NO": 999, "REV_AT_EPOCH": 59865, "BSTAR": 0.00025817541, "MEAN_MOTION_DOT": 4.7e-06, "MEAN_MOTION_DDOT": 0}, "tle": {"line1": "1 47036U 99025FBN 25342.36272402  .00000470  00000+0  25818-3 0  9994", "line2": "2 47036  98.7227  25.8733 0068785 109.9906 312.7639 14.15172568598657"}}, "geometry": {"type": "Point", "coordinates": [19.011645864096398, 46.613395671409066]}}, {"type": "Feature", "properties": {"norad_id": 47040, "name": "FENGYUN 1C DEB", "group": "fengyun-1c-debris", "lat": -68.87203540462528, "lon": 43.3628798640489, "alt_km": 834.1473728557803, "timestamp": "2025-12-10T21:43:22.378722+00:00", "meta": {"OBJECT_NAME": "FENGYUN 1C DEB", "OBJECT_ID": "1999-025FBS", "EPOCH": "2025-12-03T10:58:10.539552", "MEAN_MOTION": 14.06462065, "ECCENTRICITY": 0.0063058, "INCLINATION": 100.2943, "RA_OF_ASC_NODE": 242.958, "ARG_OF_PERICENTER": 257.8027, "MEAN_ANOMALY": 101.6069, "EPHEMERIS_TYPE": 0, "CLASSIFICATION_TYPE": "U", "NORAD_CAT_ID": 47040, "ELEMENT_SET_NO": 999, "REV_AT_EPOCH": 88978, "BSTAR": 0.0008721929, "MEAN_MOTION_DOT": 1.412e-05, "MEAN_MOTION_DDOT": 0}, "tle": {"line1": "1 47040U 99025FBS 25337.45706643  .00001412  00000+0  87219-3 0  9992", "line2": "2 47040 100.2943 242.9580 0063058 257.8027 101.6069 14.06462065889786"}}, "geometry": {"type": "Point", "coordinates": [43.3628798640489, -68.87203540462528]}}, {"type": "Feature", "properties": {"norad_id": 47041, "name": "FENGYUN 1C DEB", "group": "fengyun-1c-debris", "lat": -47.002636651735585, "lon": -177.66785551520135, "alt_km": 544.0934903304251, "timestamp": "2025-12-10T21:43:22.378732+00:00", "meta": {"OBJECT_NAME": "FENGYUN 1C DEB", "OBJECT_ID": "1999-025FBT", "EPOCH": "2025-12-10T08:02:01.720896", "MEAN_MOTION": 15.06938072, "ECCENTRICITY": 0.0014677, "INCLINATION": 98.2561, "RA_OF_ASC_NODE": 10.6796, "ARG_OF_PERICENTER": 192.5756, "MEAN_ANOMALY": 182.4579, "EPHEMERIS_TYPE": 0, "CLASSIFICATION_TYPE": "U", "NORAD_CAT_ID": 47041, "ELEMENT_SET_NO": 999, "REV_AT_EPOCH": 71153, "BSTAR": 0.002963, "MEAN_MOTION_DOT": 0.00044576, "MEAN_MOTION_DDOT": 0}, "tle": {"line1": "1 47041U 99025FBT 25344.33474214  .00044576  00000+0  29630-2 0  9994", "line2": "2 47041  98.2561  10.6796 0014677 192.5756 182.4579 15.06938072711532"}}, "geometry": {"type": "Point", "coordinates": [-177.66785551520135, -47.002636651735585]}}, {"type": "Feature", "properties": {"norad_id": 47042, "name": "FENGYUN 1C DEB", "group": "fengyun-1c-debris", "lat": 78.83462908782994, "lon": 115.78877615128145, "alt_km": 786.4550695331218, "timestamp": "2025-12-10T21:43:22.378744+00:00", "meta": {"OBJECT_NAME": "FENGYUN 1C DEB", "OBJECT_ID": "1999-025FBU", "EPOCH": "2025-12-08T23:46:33.824928", "MEAN_MOTION": 14.22828357, "ECCENTRICITY": 0.0055479, "INCLINATION": 99.0007, "RA_OF_ASC_NODE": 240.4137, "ARG_OF_PERICENTER": 45.2205, "MEAN_ANOMALY": 330.1771, "EPHEMERIS_TYPE": 0, "CLASSIFICATION_TYPE": "U", "NORAD_CAT_ID": 47042, "ELEMENT_SET_NO": 999, "REV_AT_EPOCH": 62468, "BSTAR": 0.00040267, "MEAN_MOTION_DOT": 8.72e-06, "MEAN_MOTION_DDOT": 0}, "tle": {"line1": "1 47042U 99025FBU 25342.99066927  .00000872  00000+0  40267-3 0  9994", "line2": "2 47042  99.0007 240.4137 0055479  45.2205 330.1771 14.22828357624683"}}, "geometry": {"type": "Point", "coordinates": [115.78877615128145, 78.83462908782994]}}, {"type": "Feature", "properties": {"norad_id": 47100, "name": "FENGYUN 1C DEB", "group": "fengyun-1c-debris", "lat": 33.89695632262986, "lon": 158.17053234230457, "alt_km": 667.0228824811511, "timestamp": "2025-12-10T21:43:22.378754+00:00", "meta": {"OBJECT_NAME": "FENGYUN 1C DEB", "OBJECT_ID": "1999-025FBY", "EPOCH": "2025-12-10T11:38:25.345248", "MEAN_MOTION": 14.51368237, "ECCENTRICITY": 0.00893128, "INCLINATION": 99.0209, "RA_OF_ASC_NODE": 163.8474, "ARG_OF_PERICENTER": 0.4367, "MEAN_ANOMALY": 359.6889, "EPHEMERIS_TYPE": 0, "CLASSIFICATION_TYPE": "U", "NORAD_CAT_ID": 47100, "ELEMENT_SET_NO": 999, "REV_AT_EPOCH": 26735, "BSTAR": 0.0026973468, "MEAN_MOTION_DOT": 0.00011285, "MEAN_MOTION_DDOT": 0}, "tle": {"line1": "1 47100U 99025FBY 25344.48501557  .00011285  00000+0  26973-2 0  9995", "line2": "2 47100  99.0209 163.8474 0089312   0.4367 359.6889 14.51368237267350"}}, "geometry": {"type": "Point", "coordinates": [158.17053234230457, 33.89695632262986]}}, {"type": "Feature", "properties": {"norad_id": 47104, "name": "FENGYUN 1C DEB", "group": "fengyun-1c-debris", "lat": 2.2451917424912384, "lon": -165.2007121494547, "alt_km": 858.1903792291469, "timestamp": "2025-12-10T21:43:22.378764+00:00", "meta": {"OBJECT_NAME": "FENGYUN 1C DEB", "OBJECT_ID": "1999-025FCC", "EPOCH": "2025-12-05T07:14:15.762912", "MEAN_MOTION": 14.19416271, "ECCENTRICITY": 0.00406545, "INCLINATION": 98.9092, "RA_OF_ASC_NODE": 8.8127, "ARG_OF_PERICENTER": 358.5803, "MEAN_ANOMALY": 1.5251, "EPHEMERIS_TYPE": 0, "CLASSIFICATION_TYPE": "U", "NORAD_CAT_ID": 47104, "ELEMENT_SET_NO": 999, "REV_AT_EPOCH": 62267, "BSTAR": 0.00037828604, "MEAN_MOTION_DOT": 7.57e-06, "MEAN_MOTION_DDOT": 0}, "tle": {"line1": "1 47104U 99025FCC 25339.30157133  .00000757  00000+0  37829-3 0  9996", "line2": "2 47104  98.9092   8.8127 0040654 358.5803   1.5251 14.19416271622675"}}, "geometry": {"type": "Point", "coordinates": [-165.2007121494547, 2.2451917424912384]}}]}